ONEWEB-0435             
1 51632U 22012L   25307.63553176 -.00000586  00000+0 -17137-2 0  9998
2 51632  87.8778  81.2477 0001798 108.9581 251.1741 13.10374338179775
ONEWEB-0436             
1 51633U 22012M   25306.31494014 -.00000014  00000+0 -70081-4 0  9993
2 51633  87.9129  50.9471 0001930 105.3221 254.8124 13.17651743183803
ONEWEB-0438             
1 51634U 22012N   25307.61894308 -.00000137  00000+0 -42916-3 0  9999
2 51634  87.8779  81.2522 0001389  96.5918 263.5368 13.10370331179806
ONEWEB-0439             
1 51635U 22012P   25307.77497593 -.00000382  00000+0 -11294-2 0  9998
2 51635  87.8780  81.2098 0001533 101.4984 258.6315 13.10370516179809
ONEWEB-0442             
1 51636U 22012Q   25306.30734836 -.00000025  00000+0 -97865-4 0  9995
2 51636  87.9120  50.9999 0001304  81.6432 278.4848 13.17649866183793
ONEWEB-0443             
1 51637U 22012R   25306.32675720  .00000074  00000+0  15806-3 0  9990
2 51637  87.9116  51.0019 0001444 105.9984 254.1307 13.17649949183840
ONEWEB-0444             
1 51638U 22012S   25307.61230855  .00000219  00000+0  59137-3 0  9996
2 51638  87.8779  81.2412 0001573 100.3278 259.8027 13.10368963179792
ONEWEB-0445             
1 51639U 22012T   25307.63387642 -.00000580  00000+0 -16988-2 0  9995
2 51639  87.8797  81.1982 0001588  90.4046 269.7263 13.10373096179809
